[
    {
        "Altitude(m)": 559898.8031578043,
        "Argument of Periapsis(deg)": 0.013245982221427002,
        "Eccentricity": 0.0,
        "Inclination(deg)": 53.0,
        "Latitude(deg)": 53.14499333617853,
        "Longitude(deg)": -92.76188619460133,
        "Mean Anomaly(deg)": -270.72591426484485,
        "RAAN(deg)": 279.9802867370561,
        "Satellite Name": "Starlink Shell 1 1236",
        "Satellite Number": 1236,
        "Semi-Major Axis(m)": 6931778.249405717,
        "Time(s)": 380
    },
    {
        "Altitude(m)": 559900.1950305251,
        "Argument of Periapsis(deg)": 0.013594560700938237,
        "Eccentricity": 0.0,
        "Inclination(deg)": 53.0,
        "Latitude(deg)": 53.15079237541094,
        "Longitude(deg)": -91.76096096114763,
        "Mean Anomaly(deg)": -270.09908306128807,
        "RAAN(deg)": 279.97976796697856,
        "Satellite Name": "Starlink Shell 1 1236",
        "Satellite Number": 1236,
        "Semi-Major Axis(m)": 6931778.249405717,
        "Time(s)": 390
    },
    {
        "Altitude(m)": 559899.5178861,
        "Argument of Periapsis(deg)": 0.013943139180449475,
        "Eccentricity": 0.0,
        "Inclination(deg)": 53.0,
        "Latitude(deg)": 53.14747467154413,
        "Longitude(deg)": -90.7599758841479,
        "Mean Anomaly(deg)": -269.47225185773135,
        "RAAN(deg)": 279.97924919690104,
        "Satellite Name": "Starlink Shell 1 1236",
        "Satellite Number": 1236,
        "Semi-Major Axis(m)": 6931778.249405717,
        "Time(s)": 400
    },
    {
        "Altitude(m)": 559896.772167163,
        "Argument of Periapsis(deg)": 0.014291717659960712,
        "Eccentricity": 0.0,
        "Inclination(deg)": 53.0,
        "Latitude(deg)": 53.1350427097138,
        "Longitude(deg)": -89.75937161054,
        "Mean Anomaly(deg)": -268.8454206541747,
        "RAAN(deg)": 279.97873042682363,
        "Satellite Name": "Starlink Shell 1 1236",
        "Satellite Number": 1236,
        "Semi-Major Axis(m)": 6931778.249405717,
        "Time(s)": 410
    },
    {
        "Altitude(m)": 559891.9595570029,
        "Argument of Periapsis(deg)": 0.014640296139471948,
        "Eccentricity": 0.0,
        "Inclination(deg)": 53.0,
        "Latitude(deg)": 53.1135057925887,
        "Longitude(deg)": -88.75958814361816,
        "Mean Anomaly(deg)": -268.21858945061797,
        "RAAN(deg)": 279.97821165674617,
        "Satellite Name": "Starlink Shell 1 1236",
        "Satellite Number": 1236,
        "Semi-Major Axis(m)": 6931778.249405717,
        "Time(s)": 420
    },
    {
        "Altitude(m)": 559885.0829787388,
        "Argument of Periapsis(deg)": 0.014988874618983185,
        "Eccentricity": 0.0,
        "Inclination(deg)": 53.0,
        "Latitude(deg)": 53.08288000606684,
        "Longitude(deg)": -87.76106301837952,
        "Mean Anomaly(deg)": -267.59175824706125,
        "RAAN(deg)": 279.97769288666865,
        "Satellite Name": "Starlink Shell 1 1236",
        "Satellite Number": 1236,
        "Semi-Major Axis(m)": 6931778.249405717,
        "Time(s)": 430
    },
    {
        "Altitude(m)": 559876.1465938919,
        "Argument of Periapsis(deg)": 0.015337453098494424,
        "Eccentricity": 0.0,
        "Inclination(deg)": 53.0,
        "Latitude(deg)": 53.04318816014145,
        "Longitude(deg)": -86.76422949510354,
        "Mean Anomaly(deg)": -266.96492704350453,
        "RAAN(deg)": 279.9771741165912,
        "Satellite Name": "Starlink Shell 1 1236",
        "Satellite Number": 1236,
        "Semi-Major Axis(m)": 6931778.249405717,
        "Time(s)": 440
    },
    {
        "Altitude(m)": 559865.1558003529,
        "Argument of Periapsis(deg)": 0.01568603157800566,
        "Eccentricity": 0.0,
        "Inclination(deg)": 53.0,
        "Latitude(deg)": 52.994459705445095,
        "Longitude(deg)": -85.76951629350648,
        "Mean Anomaly(deg)": -266.3380958399478,
        "RAAN(deg)": 279.9766553465137,
        "Satellite Name": "Starlink Shell 1 1236",
        "Satellite Number": 1236,
        "Semi-Major Axis(m)": 6931778.249405717,
        "Time(s)": 450
    },
    {
        "Altitude(m)": 559852.1172297632,
        "Argument of Periapsis(deg)": 0.0160346100575169,
        "Eccentricity": 0.0,
        "Inclination(deg)": 53.0,
        "Latitude(deg)": 52.936730626185074,
        "Longitude(deg)": -84.77734585083257,
        "Mean Anomaly(deg)": -265.7112646363911,
        "RAAN(deg)": 279.97613657643626,
        "Satellite Name": "Starlink Shell 1 1236",
        "Satellite Number": 1236,
        "Semi-Major Axis(m)": 6931778.249405717,
        "Time(s)": 460
    },
    {
        "Altitude(m)": 559837.038744256,
        "Argument of Periapsis(deg)": 0.016383188537028134,
        "Eccentricity": 0.0,
        "Inclination(deg)": 53.0,
        "Latitude(deg)": 52.870043310376786,
        "Longitude(deg)": -83.78813262534877,
        "Mean Anomaly(deg)": -265.0844334328344,
        "RAAN(deg)": 279.9756178063588,
        "Satellite Name": "Starlink Shell 1 1236",
        "Satellite Number": 1236,
        "Semi-Major Axis(m)": 6931778.249405717,
        "Time(s)": 470
    },
    {
        "Altitude(m)": 559819.929432658,
        "Argument of Periapsis(deg)": 0.01673176701653937,
        "Eccentricity": 0.0,
        "Inclination(deg)": 53.0,
        "Latitude(deg)": 52.79444639846239,
        "Longitude(deg)": -82.80228296610684,
        "Mean Anomaly(deg)": -264.4576022292777,
        "RAAN(deg)": 279.9750990362813,
        "Satellite Name": "Starlink Shell 1 1236",
        "Satellite Number": 1236,
        "Semi-Major Axis(m)": 6931778.249405717,
        "Time(s)": 480
    },
    {
        "Altitude(m)": 559800.7996060232,
        "Argument of Periapsis(deg)": 0.017080345496050607,
        "Eccentricity": 0.0,
        "Inclination(deg)": 53.0,
        "Latitude(deg)": 52.7099946115639,
        "Longitude(deg)": -81.82019353051936,
        "Mean Anomaly(deg)": -263.8307710257209,
        "RAAN(deg)": 279.9745802662038,
        "Satellite Name": "Starlink Shell 1 1236",
        "Satellite Number": 1236,
        "Semi-Major Axis(m)": 6931778.249405717,
        "Time(s)": 490
    },
    {
        "Altitude(m)": 559779.6607926262,
        "Argument of Periapsis(deg)": 0.017428923975561842,
        "Eccentricity": 0.0,
        "Inclination(deg)": 53.0,
        "Latitude(deg)": 52.61674856076801,
        "Longitude(deg)": -80.84224976912888,
        "Mean Anomaly(deg)": -263.2039398221643,
        "RAAN(deg)": 279.9740614961264,
        "Satellite Name": "Starlink Shell 1 1236",
        "Satellite Number": 1236,
        "Semi-Major Axis(m)": 6931778.249405717,
        "Time(s)": 500
    },
    {
        "Altitude(m)": 559756.5257323335,
        "Argument of Periapsis(deg)": 0.01777750245507308,
        "Eccentricity": 0.0,
        "Inclination(deg)": 53.0,
        "Latitude(deg)": 52.514774538962754,
        "Longitude(deg)": -79.86882599609022,
        "Mean Anomaly(deg)": -262.5771086186075,
        "RAAN(deg)": 279.9735427260489,
        "Satellite Name": "Starlink Shell 1 1236",
        "Satellite Number": 1236,
        "Semi-Major Axis(m)": 6931778.249405717,
        "Time(s)": 510
    },
    {
        "Altitude(m)": 559731.4083703922,
        "Argument of Periapsis(deg)": 0.018126080934584315,
        "Eccentricity": 0.0,
        "Inclination(deg)": 53.0,
        "Latitude(deg)": 52.404144296851996,
        "Longitude(deg)": -78.90028402438625,
        "Mean Anomaly(deg)": -261.95027741505083,
        "RAAN(deg)": 279.97302395597137,
        "Satellite Name": "Starlink Shell 1 1236",
        "Satellite Number": 1236,
        "Semi-Major Axis(m)": 6931778.249405717,
        "Time(s)": 520
    },
    {
        "Altitude(m)": 559704.3238506139,
        "Argument of Periapsis(deg)": 0.018474659414095554,
        "Eccentricity": 0.0,
        "Inclination(deg)": 53.0,
        "Latitude(deg)": 52.28493480486843,
        "Longitude(deg)": -77.93697188257752,
        "Mean Anomaly(deg)": -261.3234462114941,
        "RAAN(deg)": 279.97250518589397,
        "Satellite Name": "Starlink Shell 1 1236",
        "Satellite Number": 1236,
        "Semi-Major Axis(m)": 6931778.249405717,
        "Time(s)": 530
    },
    {
        "Altitude(m)": 559675.2885079917,
        "Argument of Periapsis(deg)": 0.018823237893606792,
        "Eccentricity": 0.0,
        "Inclination(deg)": 53.0,
        "Latitude(deg)": 52.157228002679446,
        "Longitude(deg)": -76.9792241282389,
        "Mean Anomaly(deg)": -260.69661500793734,
        "RAAN(deg)": 279.9719864158165,
        "Satellite Name": "Starlink Shell 1 1236",
        "Satellite Number": 1236,
        "Semi-Major Axis(m)": 6931778.249405717,
        "Time(s)": 540
    },
    {
        "Altitude(m)": 559644.3198607344,
        "Argument of Periapsis(deg)": 0.019171816373118027,
        "Eccentricity": 0.0,
        "Inclination(deg)": 53.0,
        "Latitude(deg)": 52.02111053826411,
        "Longitude(deg)": -76.02736073573351,
        "Mean Anomaly(deg)": -260.0697838043807,
        "RAAN(deg)": 279.971467645739,
        "Satellite Name": "Starlink Shell 1 1236",
        "Satellite Number": 1236,
        "Semi-Major Axis(m)": 6931778.249405717,
        "Time(s)": 550
    },
    {
        "Altitude(m)": 559611.4366016944,
        "Argument of Periapsis(deg)": 0.019520394852629266,
        "Eccentricity": 0.0,
        "Inclination(deg)": 53.0,
        "Latitude(deg)": 51.87667349816301,
        "Longitude(deg)": -75.08168607035088,
        "Mean Anomaly(deg)": -259.44295260082396,
        "RAAN(deg)": 279.9709488756615,
        "Satellite Name": "Starlink Shell 1 1236",
        "Satellite Number": 1236,
        "Semi-Major Axis(m)": 6931778.249405717,
        "Time(s)": 560
    }
]